{
  "type": "FeatureCollection",
  "features": [
    {
      "type": "Feature",
      "properties": {
        "norad_id": 30545,
        "name": "FENGYUN 1C DEB",
        "group": "fengyun-1c-debris",
        "lat": -17.867704490187823,
        "lon": -166.03877719523862,
        "alt_km": 951.8084651269328,
        "timestamp": "2025-12-03T13:52:09.838826+00:00",
        "meta_object_name": "FENGYUN 1C DEB",
        "meta_object_id": "1999-025AKK",
        "meta_epoch": "2025-12-02T12:30:10.010016",
        "meta_mean_motion": 13.20769856,
        "meta_eccentricity": 0.04729004,
        "meta_inclination": 99.0011,
        "meta_ra_of_asc_node": 190.1208,
        "meta_arg_of_pericenter": 35.6122,
        "meta_mean_anomaly": 327.5604,
        "meta_ephemeris_type": 0,
        "meta_classification_type": "U",
        "meta_norad_cat_id": 30545,
        "meta_element_set_no": 999,
        "meta_rev_at_epoch": 90795,
        "meta_bstar": 0.00063912864,
        "meta_mean_motion_dot": 4.33e-06,
        "meta_mean_motion_ddot": 0,
        "tle_line1": "1 30545U 99025AKK 25336.52094919  .00000433  00000+0  63913-3 0  9994",
        "tle_line2": "2 30545  99.0011 190.1208 0472900  35.6122 327.5604 13.20769856907955"
      },
      "geometry": {
        "type": "Point",
        "coordinates": [
          -166.03877719523862,
          -17.867704490187823
        ]
      }
    },
    {
      "type": "Feature",
      "properties": {
        "norad_id": 30546,
        "name": "FENGYUN 1C DEB",
        "group": "fengyun-1c-debris",
        "lat": 28.433095452924125,
        "lon": -172.38814372816464,
        "alt_km": 668.0489831921068,
        "timestamp": "2025-12-03T13:52:09.838837+00:00",
        "meta_object_name": "FENGYUN 1C DEB",
        "meta_object_id": "1999-025AKL",
        "meta_epoch": "2025-12-02T20:01:23.061216",
        "meta_mean_motion": 14.86883677,
        "meta_eccentricity": 0.00924366,
        "meta_inclination": 98.9091,
        "meta_ra_of_asc_node": 191.6508,
        "meta_arg_of_pericenter": 194.2781,
        "meta_mean_anomaly": 176.9826,
        "meta_ephemeris_type": 0,
        "meta_classification_type": "U",
        "meta_norad_cat_id": 30546,
        "meta_element_set_no": 999,
        "meta_rev_at_epoch": 310,
        "meta_bstar": 0.0012278142,
        "meta_mean_motion_dot": 0.00011798,
        "meta_mean_motion_ddot": 0,
        "tle_line1": "1 30546U 99025AKL 25336.83429469  .00011798  00000+0  12278-2 0  9994",
        "tle_line2": "2 30546  98.9091 191.6508 0092436 194.2781 176.9826 14.86883677  3103"
      },
      "geometry": {
        "type": "Point",
        "coordinates": [
          -172.38814372816464,
          28.433095452924125
        ]
      }
    },
    {
      "type": "Feature",
      "properties": {
        "norad_id": 30547,
        "name": "FENGYUN 1C DEB",
        "group": "fengyun-1c-debris",
        "lat": -70.26876758006456,
        "lon": -153.839041708106,
        "alt_km": 723.3646257737164,
        "timestamp": "2025-12-03T13:52:09.838847+00:00",
        "meta_object_name": "FENGYUN 1C DEB",
        "meta_object_id": "1999-025AKM",
        "meta_epoch": "2025-12-03T06:08:05.294976",
        "meta_mean_motion": 14.37721715,
        "meta_eccentricity": 0.00950057,
        "meta_inclination": 98.9028,
        "meta_ra_of_asc_node": 179.9129,
        "meta_arg_of_pericenter": 245.6328,
        "meta_mean_anomaly": 174.2657,
        "meta_ephemeris_type": 0,
        "meta_classification_type": "U",
        "meta_norad_cat_id": 30547,
        "meta_element_set_no": 999,
        "meta_rev_at_epoch": 98586,
        "meta_bstar": 0.00043705858,
        "meta_mean_motion_dot": 1.335e-05,
        "meta_mean_motion_ddot": 0,
        "tle_line1": "1 30547U 99025AKM 25337.25561684  .00001335  00000+0  43706-3 0  9995",
        "tle_line2": "2 30547  98.9028 179.9129 0095005 245.6328 174.2657 14.37721715985860"
      },
      "geometry": {
        "type": "Point",
        "coordinates": [
          -153.839041708106,
          -70.26876758006456
        ]
      }
    },
    {
      "type": "Feature",
      "properties": {
        "norad_id": 30548,
        "name": "FENGYUN 1C DEB",
        "group": "fengyun-1c-debris",
        "lat": -1.715212105774821,
        "lon": 53.77799716872185,
        "alt_km": 855.8758085235368,
        "timestamp": "2025-12-03T13:52:09.838858+00:00",
        "meta_object_name": "FENGYUN 1C DEB",
        "meta_object_id": "1999-025AKN",
        "meta_epoch": "2025-12-02T12:21:13.252608",
        "meta_mean_motion": 14.26712418,
        "meta_eccentricity": 0.00697222,
        "meta_inclination": 99.6819,
        "meta_ra_of_asc_node": 232.896,
        "meta_arg_of_pericenter": 4.095,
        "meta_mean_anomaly": 119.973,
        "meta_ephemeris_type": 0,
        "meta_classification_type": "U",
        "meta_norad_cat_id": 30548,
        "meta_element_set_no": 999,
        "meta_rev_at_epoch": 13949,
        "meta_bstar": 0.0026062445,
        "meta_mean_motion_dot": 6.423e-05,
        "meta_mean_motion_ddot": 0,
        "tle_line1": "1 30548U 99025AKN 25336.51473672  .00006423  00000+0  26062-2 0  9991",
        "tle_line2": "2 30548  99.6819 232.8960 0069722   4.0950 119.9730 14.26712418139490"
      },
      "geometry": {
        "type": "Point",
        "coordinates": [
          53.77799716872185,
          -1.715212105774821
        ]
      }
    },
    {
      "type": "Feature",
      "properties": {
        "norad_id": 30549,
        "name": "FENGYUN 1C DEB",
        "group": "fengyun-1c-debris",
        "lat": -36.72137489068837,
        "lon": -87.70111750927461,
        "alt_km": 813.3962676762967,
        "timestamp": "2025-12-03T13:52:09.838868+00:00",
        "meta_object_name": "FENGYUN 1C DEB",
        "meta_object_id": "1999-025AKP",
        "meta_epoch": "2025-12-03T07:39:14.924736",
        "meta_mean_motion": 13.98584639,
        "meta_eccentricity": 0.02882619,
        "meta_inclination": 98.4796,
        "meta_ra_of_asc_node": 98.4482,
        "meta_arg_of_pericenter": 283.4344,
        "meta_mean_anomaly": 73.4847,
        "meta_ephemeris_type": 0,
        "meta_classification_type": "U",
        "meta_norad_cat_id": 30549,
        "meta_element_set_no": 999,
        "meta_rev_at_epoch": 95162,
        "meta_bstar": 0.0024216431,
        "meta_mean_motion_dot": 4.917e-05,
        "meta_mean_motion_ddot": 0,
        "tle_line1": "1 30549U 99025AKP 25337.31892274  .00004917  00000+0  24216-2 0  9999",
        "tle_line2": "2 30549  98.4796  98.4482 0288261 283.4344  73.4847 13.98584639951628"
      },
      "geometry": {
        "type": "Point",
        "coordinates": [
          -87.70111750927461,
          -36.72137489068837
        ]
      }
    },
    {
      "type": "Feature",
      "properties": {
        "norad_id": 30550,
        "name": "FENGYUN 1C DEB",
        "group": "fengyun-1c-debris",
        "lat": -73.5914436444947,
        "lon": 20.147470628766612,
        "alt_km": 852.9729774200796,
        "timestamp": "2025-12-03T13:52:09.838878+00:00",
        "meta_object_name": "FENGYUN 1C DEB",
        "meta_object_id": "1999-025AKQ",
        "meta_epoch": "2025-12-03T04:48:23.665824",
        "meta_mean_motion": 14.02248365,
        "meta_eccentricity": 0.01339217,
        "meta_inclination": 99.0534,
        "meta_ra_of_asc_node": 232.5535,
        "meta_arg_of_pericenter": 323.5048,
        "meta_mean_anomaly": 188.9171,
        "meta_ephemeris_type": 0,
        "meta_classification_type": "U",
        "meta_norad_cat_id": 30550,
        "meta_element_set_no": 999,
        "meta_rev_at_epoch": 95261,
        "meta_bstar": 0.0039334484,
        "meta_mean_motion_dot": 6.478e-05,
        "meta_mean_motion_ddot": 0,
        "tle_line1": "1 30550U 99025AKQ 25337.20027391  .00006478  00000+0  39334-2 0  9990",
        "tle_line2": "2 30550  99.0534 232.5535 0133921 323.5048 188.9171 14.02248365952617"
      },
      "geometry": {
        "type": "Point",
        "coordinates": [
          20.147470628766612,
          -73.5914436444947
        ]
      }
    },
    {
      "type": "Feature",
      "properties": {
        "norad_id": 30552,
        "name": "FENGYUN 1C DEB",
        "group": "fengyun-1c-debris",
        "lat": -13.74131065097378,
        "lon": 110.91116192334384,
        "alt_km": 712.5980039560245,
        "timestamp": "2025-12-03T13:52:09.838889+00:00",
        "meta_object_name": "FENGYUN 1C DEB",
        "meta_object_id": "1999-025AKS",
        "meta_epoch": "2025-12-02T08:12:40.902048",
        "meta_mean_motion": 14.54300423,
        "meta_eccentricity": 0.00141637,
        "meta_inclination": 98.8343,
        "meta_ra_of_asc_node": 107.4277,
        "meta_arg_of_pericenter": 280.0643,
        "meta_mean_anomaly": 79.8953,
        "meta_ephemeris_type": 0,
        "meta_classification_type": "U",
        "meta_norad_cat_id": 30552,
        "meta_element_set_no": 999,
        "meta_rev_at_epoch": 97501,
        "meta_bstar": 0.0039430765,
        "meta_mean_motion_dot": 0.00016739,
        "meta_mean_motion_ddot": 0,
        "tle_line1": "1 30552U 99025AKS 25336.34214007  .00016739  00000+0  39431-2 0  9997",
        "tle_line2": "2 30552  98.8343 107.4277 0014163 280.0643  79.8953 14.54300423975017"
      },
      "geometry": {
        "type": "Point",
        "coordinates": [
          110.91116192334384,
          -13.74131065097378
        ]
      }
    }
  ]
}